QIANFAN-81              
1 63167U 25046J   25198.87871755  .00000097  00000+0  13137-3 0  9996
2 63167  88.9847 335.0998 0014877 180.7608 179.3523 13.50956589 27520
QIANFAN-82              
1 63168U 25046K   25198.83744041  .00000106  00000+0  14568-3 0  9990
2 63168  88.9847 335.1475 0012760 187.6865 172.4092 13.50957925 27500
QIANFAN-83              
1 63169U 25046L   25198.88107395  .00000145  00000+0  17183-3 0  9990
2 63169  88.9847 335.2087 0014229 181.4788 178.6329 13.61925945 27475
QIANFAN-84              
1 63170U 25046M   25198.86632210  .00000137  00000+0  19372-3 0  9992
2 63170  88.9847 335.2777 0015830 185.6450 174.4525 13.50958029 27439
QIANFAN-85              
1 63171U 25046N   25198.86221252  .00000106  00000+0  14620-3 0  9990
2 63171  88.9846 335.1504 0013139 186.7460 173.3516 13.50954391 27503
QIANFAN-86              
1 63172U 25046P   25198.87044710  .00000093  00000+0  12552-3 0  9991
2 63172  88.9849 335.0083 0010905 189.3990 170.6959 13.50954488 27589
QIANFAN-87              
1 63173U 25046Q   25198.84152429  .00000033  00000+0  32722-4 0  9992
2 63173  88.9845 335.1285 0011775 184.8735 175.2303 13.50958903 27517
QIANFAN-88              
1 63174U 25046R   25198.85818998  .00000118  00000+0  16346-3 0  9991
2 63174  88.9847 335.0777 0011875 193.3027 166.7813 13.50954804 27545
